{
  "type": "FeatureCollection",
  "features": [
    {"type": "Feature", "properties": {"id": 1, "name": "parcel_1"}, "geometry": {"type": "Polygon", "coordinates": [[[0, 0], [5, 0], [5, 5], [0, 5], [0, 0]]]}},
    {"type": "Feature", "properties": {"id": 2, "name": "parcel_2"}, "geometry": {"type": "Polygon", "coordinates": [[[10, 0], [15, 0], [15, 5], [10, 5], [10, 0]]]}},
    {"type": "Feature", "properties": {"id": 3, "name": "parcel_3"}, "geometry": {"type": "Polygon", "coordinates": [[[20, 0], [25, 0], [25, 5], [20, 5], [20, 0]]]}},
    {"type": "Feature", "properties": {"id": 4, "name": "parcel_4"}, "geometry": {"type": "Polygon", "coordinates": [[[30, 0], [35, 0], [35, 5], [30, 5], [30, 0]]]}}
  ]
}
